[{"OBJECT_NAME":"STARLINK-1645","OBJECT_ID":"2021-012C","EPOCH":"2026-03-09T22:00:01.999584","MEAN_MOTION":15.81625444,"ECCENTRICITY":0.00097927,"INCLINATION":53.0423,"RA_OF_ASC_NODE":22.5258,"ARG_OF_PERICENTER":78.75,"MEAN_ANOMALY":175.006,"EPHEMERIS_TYPE":0,"CLASSIFICATION_TYPE":"U","NORAD_CAT_ID":47622,"ELEMENT_SET_NO":999,"REV_AT_EPOCH":585,"BSTAR":0.0011756393,"MEAN_MOTION_DOT":0.0024723,"MEAN_MOTION_DDOT":0},{"OBJECT_NAME":"STARLINK-36770","OBJECT_ID":"2026-034W","EPOCH":"2026-03-09T18:41:54.343680","MEAN_MOTION":15.80975939,"ECCENTRICITY":5.69e-5,"INCLINATION":53.1595,"RA_OF_ASC_NODE":210.7213,"ARG_OF_PERICENTER":75.5515,"MEAN_ANOMALY":284.5571,"EPHEMERIS_TYPE":0,"CLASSIFICATION_TYPE":"U","NORAD_CAT_ID":67870,"ELEMENT_SET_NO":999,"REV_AT_EPOCH":395,"BSTAR":0.0015898968,"MEAN_MOTION_DOT":0.00326825,"MEAN_MOTION_DDOT":0}]
